COSMOS 1933             
1 18958U 88020A   26043.73899012  .00003435  00000+0  16865-3 0  9996
2 18958  82.5117 275.5985 0002864 302.8156  57.2801 15.17763465 46449
SL-3 R/B                
1 19046U 88032B   26043.90991897  .00006144  00000+0  28963-3 0  9993
2 19046  97.5149  27.2626 0024986 324.2497  35.7064 15.19587736 48348
SL-16 R/B               
1 19120U 88039B   26043.61372548  .00000119  00000+0  79151-4 0  9999
2 19120  71.0146 121.5740 0021220  12.4413 347.7232 14.19612045954825
COSMOS 1953             
1 19210U 88050A   26043.87585352  .00010063  00000+0  36632-3 0  9994
2 19210  82.5088 183.1871 0010874 206.7993 153.2686 15.28028623 33993
SL-8 R/B                
1 19257U 88053B   26043.70543795  .00000236  00000+0  85108-4 0  9999
2 19257  74.0485 158.5144 0020599 342.3079 122.7792 14.38900534973001
COSMOS 1975             
1 19573U 88093A   26043.77177022  .00008995  00000+0  33134-3 0  9998
2 19573  82.5221 142.6834 0010313 255.9086 104.1008 15.27634918 15600
SL-14 R/B               
1 19574U 88093B   26043.55003623  .00000479  00000+0  52306-4 0  9992
2 19574  82.5278  65.6498 0022123 119.3413 357.1088 14.85627252997302
SL-16 R/B               
1 19650U 88102B   26043.90014254  .00000291  00000+0  17107-3 0  9990
2 19650  70.9983 203.6523 0012652  42.0413 318.1678 14.16149743923389
INTERCOSMOS 24          
1 20261U 89080A   26043.70336594  .00000495  00000+0  14302-3 0  9998
2 20261  82.6061 120.6688 1187788 350.8520   7.2520 12.59522404663656
SL-14 R/B               
1 20262U 89080C   26043.91013025  .00000478  00000+0  14425-3 0  9990
2 20262  82.5950 189.0921 1229535 241.4070 105.7988 12.50462187657055
DELTA 1 R/B             
1 20323U 89089B   26043.58226549  .00000372  00000+0  10072-3 0  9994
2 20323  97.0724 255.0110 0068513 200.9246 158.9146 14.50642007892092
ARIANE 40 R/B           
1 20443U 90005H   26043.72709900  .00000269  00000+0  99252-4 0  9993
2 20443  98.3140 105.1256 0008893 280.6212  79.3974 14.39853520889216
