CCSDS_OMM_VERS = 2.0
CREATION_DATE  = 
ORIGINATOR     = 

OBJECT_NAME    = COSMOS 1933
OBJECT_ID      = 1988-020A
CENTER_NAME    = EARTH
REF_FRAME      = TEME
TIME_SYSTEM    = UTC
MEAN_ELEMENT_THEORY = SGP/SGP4

EPOCH          = 2026-02-12T17:44:08.746368
MEAN_MOTION    = 15.17763465
ECCENTRICITY   = .00028645
INCLINATION    = 82.5117
RA_OF_ASC_NODE = 275.5985
ARG_OF_PERICENTER = 302.8156
MEAN_ANOMALY   = 57.2801

EPHEMERIS_TYPE = 0
CLASSIFICATION_TYPE = U
NORAD_CAT_ID   = 18958
ELEMENT_SET_NO = 999
REV_AT_EPOCH   = 4644
BSTAR          = .16864893E-3
MEAN_MOTION_DOT = .3435E-4
MEAN_MOTION_DDOT = 0

CCSDS_OMM_VERS = 2.0
CREATION_DATE  = 
ORIGINATOR     = 

OBJECT_NAME    = SL-3 R/B
OBJECT_ID      = 1988-032B
CENTER_NAME    = EARTH
REF_FRAME      = TEME
TIME_SYSTEM    = UTC
MEAN_ELEMENT_THEORY = SGP/SGP4

EPOCH          = 2026-02-12T21:50:16.999008
MEAN_MOTION    = 15.19587736
ECCENTRICITY   = .00249863
INCLINATION    = 97.5149
RA_OF_ASC_NODE = 27.2626
ARG_OF_PERICENTER = 324.2497
MEAN_ANOMALY   = 35.7064

EPHEMERIS_TYPE = 0
CLASSIFICATION_TYPE = U
NORAD_CAT_ID   = 19046
ELEMENT_SET_NO = 999
REV_AT_EPOCH   = 4834
BSTAR          = .28962677E-3
MEAN_MOTION_DOT = .6144E-4
MEAN_MOTION_DDOT = 0

CCSDS_OMM_VERS = 2.0
CREATION_DATE  = 
ORIGINATOR     = 

OBJECT_NAME    = SL-16 R/B
OBJECT_ID      = 1988-039B
CENTER_NAME    = EARTH
REF_FRAME      = TEME
TIME_SYSTEM    = UTC
MEAN_ELEMENT_THEORY = SGP/SGP4

EPOCH          = 2026-02-12T14:43:45.881472
MEAN_MOTION    = 14.19612045
ECCENTRICITY   = .002122
INCLINATION    = 71.0146
RA_OF_ASC_NODE = 121.5740
ARG_OF_PERICENTER = 12.4413
MEAN_ANOMALY   = 347.7232

EPHEMERIS_TYPE = 0
CLASSIFICATION_TYPE = U
NORAD_CAT_ID   = 19120
ELEMENT_SET_NO = 999
REV_AT_EPOCH   = 95482
BSTAR          = .79151E-4
MEAN_MOTION_DOT = .119E-5
MEAN_MOTION_DDOT = 0

CCSDS_OMM_VERS = 2.0
CREATION_DATE  = 
ORIGINATOR     = 

OBJECT_NAME    = COSMOS 1953
OBJECT_ID      = 1988-050A
CENTER_NAME    = EARTH
REF_FRAME      = TEME
TIME_SYSTEM    = UTC
MEAN_ELEMENT_THEORY = SGP/SGP4

EPOCH          = 2026-02-12T21:01:13.744128
MEAN_MOTION    = 15.28028623
ECCENTRICITY   = .00108741
INCLINATION    = 82.5088
RA_OF_ASC_NODE = 183.1871
ARG_OF_PERICENTER = 206.7993
MEAN_ANOMALY   = 153.2686

EPHEMERIS_TYPE = 0
CLASSIFICATION_TYPE = U
NORAD_CAT_ID   = 19210
ELEMENT_SET_NO = 999
REV_AT_EPOCH   = 3399
BSTAR          = .36632389E-3
MEAN_MOTION_DOT = .10063E-3
MEAN_MOTION_DDOT = 0

CCSDS_OMM_VERS = 2.0
CREATION_DATE  = 
ORIGINATOR     = 

OBJECT_NAME    = SL-8 R/B
OBJECT_ID      = 1988-053B
CENTER_NAME    = EARTH
REF_FRAME      = TEME
TIME_SYSTEM    = UTC
MEAN_ELEMENT_THEORY = SGP/SGP4

EPOCH          = 2026-02-12T16:55:49.838880
MEAN_MOTION    = 14.38900534
ECCENTRICITY   = .00205996
INCLINATION    = 74.0485
RA_OF_ASC_NODE = 158.5144
ARG_OF_PERICENTER = 342.3079
MEAN_ANOMALY   = 122.7792

EPHEMERIS_TYPE = 0
CLASSIFICATION_TYPE = U
NORAD_CAT_ID   = 19257
ELEMENT_SET_NO = 999
REV_AT_EPOCH   = 97300
BSTAR          = .85107674E-4
MEAN_MOTION_DOT = .236E-5
MEAN_MOTION_DDOT = 0

CCSDS_OMM_VERS = 2.0
CREATION_DATE  = 
ORIGINATOR     = 

OBJECT_NAME    = COSMOS 1975
OBJECT_ID      = 1988-093A
CENTER_NAME    = EARTH
REF_FRAME      = TEME
TIME_SYSTEM    = UTC
MEAN_ELEMENT_THEORY = SGP/SGP4

EPOCH          = 2026-02-12T18:31:20.947008
MEAN_MOTION    = 15.27634918
ECCENTRICITY   = .00103131
INCLINATION    = 82.5221
RA_OF_ASC_NODE = 142.6834
ARG_OF_PERICENTER = 255.9086
MEAN_ANOMALY   = 104.1008

EPHEMERIS_TYPE = 0
CLASSIFICATION_TYPE = U
NORAD_CAT_ID   = 19573
ELEMENT_SET_NO = 999
REV_AT_EPOCH   = 1560
BSTAR          = .33133835E-3
MEAN_MOTION_DOT = .8995E-4
MEAN_MOTION_DDOT = 0

CCSDS_OMM_VERS = 2.0
CREATION_DATE  = 
ORIGINATOR     = 

OBJECT_NAME    = SL-14 R/B
OBJECT_ID      = 1988-093B
CENTER_NAME    = EARTH
REF_FRAME      = TEME
TIME_SYSTEM    = UTC
MEAN_ELEMENT_THEORY = SGP/SGP4

EPOCH          = 2026-02-12T13:12:03.130272
MEAN_MOTION    = 14.85627252
ECCENTRICITY   = .0022123
INCLINATION    = 82.5278
RA_OF_ASC_NODE = 65.6498
ARG_OF_PERICENTER = 119.3413
MEAN_ANOMALY   = 357.1088

EPHEMERIS_TYPE = 0
CLASSIFICATION_TYPE = U
NORAD_CAT_ID   = 19574
ELEMENT_SET_NO = 999
REV_AT_EPOCH   = 99730
BSTAR          = .52306E-4
MEAN_MOTION_DOT = .479E-5
MEAN_MOTION_DDOT = 0

CCSDS_OMM_VERS = 2.0
CREATION_DATE  = 
ORIGINATOR     = 

OBJECT_NAME    = SL-16 R/B
OBJECT_ID      = 1988-102B
CENTER_NAME    = EARTH
REF_FRAME      = TEME
TIME_SYSTEM    = UTC
MEAN_ELEMENT_THEORY = SGP/SGP4

EPOCH          = 2026-02-12T21:36:12.315456
MEAN_MOTION    = 14.16149743
ECCENTRICITY   = .00126521
INCLINATION    = 70.9983
RA_OF_ASC_NODE = 203.6523
ARG_OF_PERICENTER = 42.0413
MEAN_ANOMALY   = 318.1678

EPHEMERIS_TYPE = 0
CLASSIFICATION_TYPE = U
NORAD_CAT_ID   = 19650
ELEMENT_SET_NO = 999
REV_AT_EPOCH   = 92338
BSTAR          = .17106575E-3
MEAN_MOTION_DOT = .291E-5
MEAN_MOTION_DDOT = 0

CCSDS_OMM_VERS = 2.0
CREATION_DATE  = 
ORIGINATOR     = 

OBJECT_NAME    = INTERCOSMOS 24
OBJECT_ID      = 1989-080A
CENTER_NAME    = EARTH
REF_FRAME      = TEME
TIME_SYSTEM    = UTC
MEAN_ELEMENT_THEORY = SGP/SGP4

EPOCH          = 2026-02-12T16:52:50.817216
MEAN_MOTION    = 12.59522404
ECCENTRICITY   = .11877882
INCLINATION    = 82.6061
RA_OF_ASC_NODE = 120.6688
ARG_OF_PERICENTER = 350.8520
MEAN_ANOMALY   = 7.2520

EPHEMERIS_TYPE = 0
CLASSIFICATION_TYPE = U
NORAD_CAT_ID   = 20261
ELEMENT_SET_NO = 999
REV_AT_EPOCH   = 66365
BSTAR          = .14302033E-3
MEAN_MOTION_DOT = .495E-5
MEAN_MOTION_DDOT = 0

CCSDS_OMM_VERS = 2.0
CREATION_DATE  = 
ORIGINATOR     = 

OBJECT_NAME    = SL-14 R/B
OBJECT_ID      = 1989-080C
CENTER_NAME    = EARTH
REF_FRAME      = TEME
TIME_SYSTEM    = UTC
MEAN_ELEMENT_THEORY = SGP/SGP4

EPOCH          = 2026-02-12T21:50:35.253600
MEAN_MOTION    = 12.50462187
ECCENTRICITY   = .12295358
INCLINATION    = 82.5950
RA_OF_ASC_NODE = 189.0921
ARG_OF_PERICENTER = 241.4070
MEAN_ANOMALY   = 105.7988

EPHEMERIS_TYPE = 0
CLASSIFICATION_TYPE = U
NORAD_CAT_ID   = 20262
ELEMENT_SET_NO = 999
REV_AT_EPOCH   = 65705
BSTAR          = .14425216E-3
MEAN_MOTION_DOT = .478E-5
MEAN_MOTION_DDOT = 0

CCSDS_OMM_VERS = 2.0
CREATION_DATE  = 
ORIGINATOR     = 

OBJECT_NAME    = DELTA 1 R/B
OBJECT_ID      = 1989-089B
CENTER_NAME    = EARTH
REF_FRAME      = TEME
TIME_SYSTEM    = UTC
MEAN_ELEMENT_THEORY = SGP/SGP4

EPOCH          = 2026-02-12T13:58:27.738336
MEAN_MOTION    = 14.50642007
ECCENTRICITY   = .0068513
INCLINATION    = 97.0724
RA_OF_ASC_NODE = 255.0110
ARG_OF_PERICENTER = 200.9246
MEAN_ANOMALY   = 158.9146

EPHEMERIS_TYPE = 0
CLASSIFICATION_TYPE = U
NORAD_CAT_ID   = 20323
ELEMENT_SET_NO = 999
REV_AT_EPOCH   = 89209
BSTAR          = .10072E-3
MEAN_MOTION_DOT = .372E-5
MEAN_MOTION_DDOT = 0

CCSDS_OMM_VERS = 2.0
CREATION_DATE  = 
ORIGINATOR     = 

OBJECT_NAME    = ARIANE 40 R/B
OBJECT_ID      = 1990-005H
CENTER_NAME    = EARTH
REF_FRAME      = TEME
TIME_SYSTEM    = UTC
MEAN_ELEMENT_THEORY = SGP/SGP4

EPOCH          = 2026-02-12T17:27:01.353600
MEAN_MOTION    = 14.39853520
ECCENTRICITY   = .0008893
INCLINATION    = 98.3140
RA_OF_ASC_NODE = 105.1256
ARG_OF_PERICENTER = 280.6212
MEAN_ANOMALY   = 79.3974

EPHEMERIS_TYPE = 0
CLASSIFICATION_TYPE = U
NORAD_CAT_ID   = 20443
ELEMENT_SET_NO = 999
REV_AT_EPOCH   = 88921
BSTAR          = .99251561E-4
MEAN_MOTION_DOT = .269E-5
MEAN_MOTION_DDOT = 0

